0 FENGYUN 1C DEB
1 29954U 99025KC  13282.00988922  .00001515  00000-0  71278-3 0  8571
2 29954 100.1741 291.4615 0089640 351.2748 061.5645 14.19752421348783
0 FENGYUN 1C DEB
1 29954U 99025KC  13283.51137138  .00001399  00000-0  66056-3 0  8582
2 29954 100.1739 293.1852 0089575 347.1407 175.8136 14.19758041348996
0 FENGYUN 1C DEB
1 29954U 99025KC  13286.53283360  .00001448  00000-0  68273-3 0  8607
2 29954 100.1733 296.6540 0089474 338.8038 138.9686 14.19766263349421
0 FENGYUN 1C DEB
1 29954U 99025KC  13287.93167568  .00001830  00000-0  85594-3 0  8614
2 29954 100.1732 298.2599 0089438 334.9313 088.7103 14.19773187349626
0 FENGYUN 1C DEB
1 29954U 99025KC  13288.98632377  .00001888  00000-0  88185-3 0  8628
2 29954 100.1731 299.4706 0089417 331.9936 079.2521 14.19778632349778
0 FENGYUN 1C DEB
1 29954U 99025KC  13290.25640313  .00001852  00000-0  86578-3 0  8636
2 29954 100.1731 300.9284 0089372 328.4774 090.9172 14.19783128349956
0 FENGYUN 1C DEB
1 29954U 99025KC  13291.60612985  .00001778  00000-0  83191-3 0  8646
2 29954 100.1731 302.4777 0089322 324.7476 149.6967 14.19788024350140
0 FENGYUN 1C DEB
1 29954U 99025KC  13292.99706704  .00002345  00000-0  10890-2 0  8659
2 29954 100.1727 304.0737 0089315 320.9430 059.1051 14.19790464350341
0 FENGYUN 1C DEB
1 29954U 99025KC  13294.63695995  .00002265  00000-0  10526-2 0  8669
2 29954 100.1729 305.9559 0089286 316.4091 161.0537 14.19798595350575
0 FENGYUN 1C DEB
1 29954U 99025KC  13295.82699715  .00002096  00000-0  97603-3 0  8670
2 29954 100.1733 307.3228 0089246 313.0581 123.7523 14.19804214350747
